ONEWEB-0055             
1 45443U 20020V   21087.37625699  .00000545  00000-0  15010-2 0  9992
2 45443  87.8941  40.0982 0002243  74.8700 285.2676 13.11416714 52696
ONEWEB-0093             
1 45444U 20020W   21087.41363608 -.00000080  00000-0 -26035-3 0  9993
2 45444  87.8916  40.1481 0002095  85.5168 274.6199 13.11415226 52763
ONEWEB-0029             
1 45445U 20020X   21087.37470362 -.00000030  00000-0 -11989-3 0  9992
2 45445  87.8921  40.1382 0001859  80.3875 279.7463 13.11418930 52737
ONEWEB-0068             
1 45446U 20020Y   21087.40740980  .00000149  00000-0  38527-3 0  9999
2 45446  87.8916  40.1490 0002416  69.8571 290.2816 13.11414498 52686
ONEWEB-0046             
1 45447U 20020Z   21087.55686982  .00000361  00000-0  98300-3 0  9998
2 45447  87.8918  40.1231 0002139  82.9915 277.1456 13.11416182 52712
ONEWEB-0063             
1 45448U 20020AA  21087.37159202 -.00000045  00000-0 -16140-3 0  9992
2 45448  87.8914  40.1765 0002574  84.4831 275.6590 13.11418742 52770
ONEWEB-0019             
1 45449U 20020AB  21087.40897874  .00000346  00000-0  93991-3 0  9992
2 45449  87.8921  40.1239 0001868  81.8654 278.2685 13.11415590 52620
ONEWEB-0094             
1 45450U 20020AC  21087.35893583  .00003357  00000-0  37991-2 0  9993
2 45450  87.8666  25.1303 0028599  56.9474 303.4428 13.69959791 55118
ONEWEB-0087             
1 45451U 20020AD  21087.37782974  .00001243  00000-0  34716-2 0  9991
2 45451  87.8925  40.1583 0001843  79.8241 280.3095 13.11414348 52664
ONEWEB-0082             
1 45452U 20020AE  21087.37937547  .00000368  00000-0  10021-2 0  9990
2 45452  87.8918  40.1254 0002024  74.1656 285.9695 13.11419788 52752
ONEWEB-0050             
1 45453U 20020AF  21087.55943811  .00000735  00000-0  64322-4 0  9995
2 45453  87.5475  20.9619 0027693  36.2637 324.0463 14.94904455 55669
ONEWEB-0034             
1 45454U 20020AG  21087.39182824  .00000588  00000-0  16227-2 0  9992
2 45454  87.8916  40.1467 0002237  83.9602 276.1781 13.11418134 52676
ONEWEB-0060             
1 45455U 20020AH  21087.47435883  .00000433  00000-0  11849-2 0  9992
2 45455  87.8919  40.1229 0002098  81.1142 279.0223 13.11416593 52647
ONEWEB-0086             
1 45456U 20020AJ  21087.41208564  .00000411  00000-0  11231-2 0  9992
2 45456  87.8915  40.1333 0002164  76.4827 283.6542 13.11411706 52692
ONEWEB-0088             
1 45457U 20020AK  21087.39339900  .00000605  00000-0  16725-2 0  9997
2 45457  87.8912  40.1715 0002203  83.4445 276.6934 13.11416974 52624
ONEWEB-0102             
1 47258U 20100A   21087.58335648  .00000014  00000-0  00000-0 0  9994
2 47258  87.9068   9.8632 0008289 313.3679  51.8482 13.42249676  1725
ONEWEB-0109             
1 47259U 20100B   21087.58335648  .00000013  00000-0  00000-0 0  9994
2 47259  87.9336   9.7177 0008775 315.9004 211.4459 13.32153069  1746
ONEWEB-0110             
1 47260U 20100C   21087.58335648  .00000014  00000-0  00000-0 0  9997
2 47260  87.8946   9.7485 0007482 316.7127 279.4460 13.51204853  1739
ONEWEB-0111             
1 47261U 20100D   21087.58335648  .00000013  00000-0  00000-0 0  9997
2 47261  87.9382   9.6941 0009344 318.6455  22.8833 13.33335854  1779
ONEWEB-0114             
1 47262U 20100E   21087.58335648  .00028468  00000-0  61913-1 0  9993
2 47262  87.9606   9.6780 0007176 301.6312 251.9122 13.28751988  1720
ONEWEB-0117             
1 47263U 20100F   21087.58335648  .00023143  00000-0  50609-1 0  9999
2 47263  87.9634   9.7423 0005152 332.6427   4.2578 13.28425755  1746
ONEWEB-0118             
1 47264U 20100G   21087.58335648  .00000014  00000-0  00000-0 0  9991
2 47264  87.8654   9.7726 0010888 301.5880 287.1238 13.43634795  1731
ONEWEB-0119             
1 47265U 20100H   21087.58335648  .00000014  00000-0  00000-0 0  9992
2 47265  87.9065   9.8110 0012794 303.2222  56.4483 13.41110257  1722
ONEWEB-0120             
1 47266U 20100J   21087.58335648  .00000014  00000-0  00000-0 0  9993
2 47266  87.8582   9.6911 0009175 319.2253 124.5012 13.52650306  1746
ONEWEB-0121             
1 47267U 20100K   21087.58335648  .00000014  00000-0  00000-0 0  9994
2 47267  87.8679   9.4618 0011543 321.5401 184.3246 13.44802330  1716
ONEWEB-0122             
1 47268U 20100L   21087.58335648  .00000013  00000-0  00000-0 0  9994
2 47268  87.9569   9.7146 0008363 314.2586  99.9323 13.31543241  1798
ONEWEB-0123             
1 47269U 20100M   21087.58335648  .00000014  00000-0  00000-0 0  9996
2 47269  87.8979   9.7816 0007579 313.3542 164.8791 13.42400346  1721
ONEWEB-0124             
1 47270U 20100N   21087.58335648  .00000013  00000-0  00000-0 0  9997
2 47270  87.9527   9.7363 0008769 302.0780 315.4483 13.30259879  1734
ONEWEB-0125             
1 47271U 20100P   21087.58335648  .00000013  00000-0  00000-0 0  9998
2 47271  87.9162   9.7341 0008985 302.1730 331.9205 13.37043739  1718
ONEWEB-0126             
1 47272U 20100Q   21087.58335648  .00000014  00000-0  00000-0 0  9990
2 47272  87.8817   9.8402 0007146 296.6848 148.6679 13.46605726  1740
ONEWEB-0127             
1 47273U 20100R   21087.58335648  .00000014  00000-0  00000-0 0  9991
2 47273  87.8721   9.7674 0010150 307.0449 354.4083 13.40313330  1712
ONEWEB-0128             
1 47274U 20100S   21087.58335648  .00000014  00000-0  00000-0 0  9992
2 47274  87.8555   9.7647 0010480 278.4748 113.7777 13.43074851  1741
ONEWEB-0129             
1 47275U 20100T   21087.58335648  .00000014  00000-0  00000-0 0  9993
2 47275  87.8560   9.6055 0010404 320.3761 292.1123 13.49595864  1721
ONEWEB-0130             
1 47276U 20100U   21087.58335648  .00000014  00000-0  00000-0 0  9994
2 47276  87.8558   9.7295 0007384 296.9469  16.1797 13.40676407  1716
ONEWEB-0131             
1 47277U 20100V   21087.58335648  .00000014  00000-0  00000-0 0  9995
2 47277  87.8372   9.6956 0007481 305.1267 131.4149 13.43879026  1729
ONEWEB-0132             
1 47278U 20100W   21087.58335648  .00000013  00000-0  00000-0 0  9995
2 47278  87.9574   9.7821 0008614 321.7111  77.5902 13.30482004  1738
ONEWEB-0133             
1 47279U 20100X   21087.58335648  .00024466  00000-0  38739-1 0  9995
2 47279  87.8110   9.7744 0010512 301.3366 314.1504 13.49375474  1756
ONEWEB-0134             
1 47280U 20100Y   21087.58335648  .00000014  00000-0  00000-0 0  9999
2 47280  87.8777   9.7594 0011323 314.4236 298.4009 13.40662386  1747
ONEWEB-0135             
1 47281U 20100Z   21087.58335648  .00000014  00000-0  00000-0 0  9990
2 47281  87.8546   9.7706 0012068 285.7741 166.0861 13.46726037  1831
ONEWEB-0136             
1 47282U 20100AA  21087.58335648  .00000014  00000-0  00000-0 0  9991
2 47282  87.8606   9.6737 0007603 300.2717 342.1393 13.42638535  1712
ONEWEB-0137             
1 47283U 20100AB  21087.58335648  .00003105  00000-0  67672-2 0  9996
2 47283  87.9632   9.8386 0009637 300.8238 225.6356 13.28543220  1734
ONEWEB-0138             
1 47284U 20100AC  21087.58335648  .00000014  00000-0  00000-0 0  9993
2 47284  88.0562   9.6806 0010548 314.0641 225.9663 13.56412955  1748
ONEWEB-0139             
1 47285U 20100AD  21087.58335648  .00000014  00000-0  00000-0 0  9994
2 47285  87.8627   9.7788 0009692 284.4406  49.5774 13.44833224  1729
ONEWEB-0140             
1 47286U 20100AE  21087.58335648  .00000014  00000-0  00000-0 0  9995
2 47286  87.8899   9.7591 0009013 320.6101  67.2103 13.42002790  1766
ONEWEB-0141             
1 47287U 20100AF  21087.58335648  .00000014  00000-0  00000-0 0  9996
2 47287  87.9063   9.8012 0010425 299.0101 283.2698 13.44194477  1718
ONEWEB-0142             
1 47288U 20100AG  21087.58335648  .00000014  00000-0  00000-0 0  9997
2 47288  87.9050   9.8275 0006965 302.4001  77.3449 13.40216627  1723
ONEWEB-0143             
1 47289U 20100AH  21087.58335648  .00000014  00000-0  00000-0 0  9998
2 47289  87.8662   9.5829 0011636 318.0663 252.1300 13.47908345  1712
ONEWEB-0144             
1 47290U 20100AJ  21087.58335648  .00000013  00000-0  00000-0 0  9999
2 47290  87.9114   9.7216 0008573 324.5097 277.4181 13.30597758  1708
ONEWEB-0145             
1 47291U 20100AK  21087.58335648  .00000014  00000-0  00000-0 0  9991
2 47291  87.8626   9.7675 0011294 279.0012 321.7540 13.45599128  1712
ONEWEB-0146             
1 47292U 20100AL  21087.58335648  .00000014  00000-0  00000-0 0  9992
2 47292  87.9018   9.7910 0012190 304.5209 153.9307 13.43584263  1795
ONEWEB-0147             
1 47293U 20100AM  21087.58335648  .00000013  00000-0  00000-0 0  9992
2 47293  87.9206   9.7313 0009650 302.8901 111.2350 13.33188979  1731
ONEWEB-0115             
1 48042U 21025A   21087.50001157  .00025269  00000-0  61441-3 0  9998
2 48042  87.3992 348.9759 0003806 278.2786 159.1172 15.40844564  1761
ONEWEB-0152             
1 48043U 21025B   21087.50001157  .00027690  00000-0  69694-3 0  9997
2 48043  87.3977 348.9803 0006146 245.9159 178.8332 15.39776232  1793
ONEWEB-0153             
1 48044U 21025C   21087.50001157  .00025000  00000-0  65035-3 0  9996
2 48044  87.3977 348.9834 0006290 284.3580 128.6678 15.38769645  1787
ONEWEB-0154             
1 48045U 21025D   21087.50001157  .00024657  00000-0  65704-3 0  9997
2 48045  87.3963 348.9821 0003590 270.3308 134.2309 15.38044152  1808
ONEWEB-0116             
1 48046U 21025E   21087.50001157  .00025283  00000-0  61698-3 0  9992
2 48046  87.3966 348.9791 0003360 275.9253 160.1862 15.40736388  1795
ONEWEB-0150             
1 48047U 21025F   21087.50001157  .00025296  00000-0  62939-3 0  9996
2 48047  87.3979 348.9779 0004715 240.1958 188.8736 15.40140515  1784
ONEWEB-0107             
1 48048U 21025G   21087.50001157  .00027878  00000-0  72172-3 0  9995
2 48048  87.3957 348.9784 0006661 280.1275 134.5385 15.38910056  1808
ONEWEB-0101             
1 48049U 21025H   21087.50001157  .00024332  00000-0  65602-3 0  9998
2 48049  87.3978 348.9842 0004344 250.3738 149.9694 15.37679506  1787
